{
  "norad_id": 68269,
  "name": "STARLINK-36962",
  "history": [
    {
      "epoch": "2026-03-28T20:00:01.999872Z",
      "apogee_km": 286.2861052381477,
      "perigee_km": 285.15085081891084,
      "latitude_deg": 46.425230685333204,
      "longitude_deg": 166.92132795580437,
      "height_km": 290.1388693963272,
      "semi_major_axis_km": 6663.855478028529,
      "eccentricity": 8.518e-05,
      "inclination_deg": 53.1579,
      "raan_deg": 241.6403,
      "arg_perigee_deg": 57.0441,
      "mean_anomaly_deg": 7.5157,
      "mean_motion_rev_day": 15.9593209
    },
    {
      "epoch": "2026-03-29T04:00:01.999584Z",
      "apogee_km": 288.27636375114344,
      "perigee_km": 287.1538342576705,
      "latitude_deg": -0.3932656106194012,
      "longitude_deg": 173.63938260205958,
      "height_km": 288.91714255881124,
      "semi_major_axis_km": 6665.852099004406,
      "eccentricity": 8.42e-05,
      "inclination_deg": 53.1575,
      "raan_deg": 239.9314,
      "arg_perigee_deg": 66.6837,
      "mean_anomaly_deg": 113.6929,
      "mean_motion_rev_day": 15.952151
    },
    {
      "epoch": "2026-03-30T04:00:01.999584Z",
      "apogee_km": 294.84336099583743,
      "perigee_km": 293.4728715789515,
      "latitude_deg": 14.063430205144549,
      "longitude_deg": 156.4949569071903,
      "height_km": 294.32130905269895,
      "semi_major_axis_km": 6672.295116287394,
      "eccentricity": 0.0001027,
      "inclination_deg": 53.158,
      "raan_deg": 234.8215,
      "arg_perigee_deg": 73.5984,
      "mean_anomaly_deg": 88.7236,
      "mean_motion_rev_day": 15.92905059
    },
    {
      "epoch": "2026-03-30T06:00:02.000160Z",
      "apogee_km": 295.3149896768682,
      "perigee_km": 294.1449691806947,
      "latitude_deg": -52.07182191190779,
      "longitude_deg": -116.20513281897944,
      "height_km": 313.3036695745529,
      "semi_major_axis_km": 6672.866979428781,
      "eccentricity": 8.767e-05,
      "inclination_deg": 53.1579,
      "raan_deg": 234.3961,
      "arg_perigee_deg": 77.5247,
      "mean_anomaly_deg": 202.9251,
      "mean_motion_rev_day": 15.92700296
    },
    {
      "epoch": "2026-03-30T14:00:03.000384Z",
      "apogee_km": 297.3815807837409,
      "perigee_km": 296.20172039546287,
      "latitude_deg": 25.48196556995887,
      "longitude_deg": -144.48987058976417,
      "height_km": 297.36544471008,
      "semi_major_axis_km": 6674.928650589602,
      "eccentricity": 8.838e-05,
      "inclination_deg": 53.1576,
      "raan_deg": 232.6983,
      "arg_perigee_deg": 68.3255,
      "mean_anomaly_deg": 324.102,
      "mean_motion_rev_day": 15.91962452
    }
  ]
}